CCSDS_OMM_VERS = 2.0
CREATION_DATE  = 
ORIGINATOR     = 

OBJECT_NAME    = ALOS (DAICHI)
OBJECT_ID      = 2006-002A
CENTER_NAME    = EARTH
REF_FRAME      = TEME
TIME_SYSTEM    = UTC
MEAN_ELEMENT_THEORY = SGP/SGP4

EPOCH          = 2026-01-27T10:48:51.096096
MEAN_MOTION    = 14.69662963
ECCENTRICITY   = .0002169
INCLINATION    = 98.1150
RA_OF_ASC_NODE = 343.6363
ARG_OF_PERICENTER = 78.5104
MEAN_ANOMALY   = 281.6345

EPHEMERIS_TYPE = 0
CLASSIFICATION_TYPE = U
NORAD_CAT_ID   = 28931
ELEMENT_SET_NO = 999
REV_AT_EPOCH   = 6742
BSTAR          = .45393E-3
MEAN_MOTION_DOT = .2652E-4
MEAN_MOTION_DDOT = 0

CCSDS_OMM_VERS = 2.0
CREATION_DATE  = 
ORIGINATOR     = 

OBJECT_NAME    = H-2A R/B
OBJECT_ID      = 2006-002B
CENTER_NAME    = EARTH
REF_FRAME      = TEME
TIME_SYSTEM    = UTC
MEAN_ELEMENT_THEORY = SGP/SGP4

EPOCH          = 2026-01-27T08:32:58.557984
MEAN_MOTION    = 15.15578538
ECCENTRICITY   = .0053702
INCLINATION    = 98.2336
RA_OF_ASC_NODE = 170.8740
ARG_OF_PERICENTER = 22.9958
MEAN_ANOMALY   = 337.3659

EPHEMERIS_TYPE = 0
CLASSIFICATION_TYPE = U
NORAD_CAT_ID   = 28932
ELEMENT_SET_NO = 999
REV_AT_EPOCH   = 8817
BSTAR          = .63294E-3
MEAN_MOTION_DOT = .1239E-3
MEAN_MOTION_DDOT = 0

CCSDS_OMM_VERS = 2.0
CREATION_DATE  = 
ORIGINATOR     = 

OBJECT_NAME    = RESURS-DK 1
OBJECT_ID      = 2006-021A
CENTER_NAME    = EARTH
REF_FRAME      = TEME
TIME_SYSTEM    = UTC
MEAN_ELEMENT_THEORY = SGP/SGP4

EPOCH          = 2026-01-27T06:29:37.956480
MEAN_MOTION    = 15.12475292
ECCENTRICITY   = .0005136
INCLINATION    = 69.9346
RA_OF_ASC_NODE = 344.1416
ARG_OF_PERICENTER = 214.8921
MEAN_ANOMALY   = 145.1909

EPHEMERIS_TYPE = 0
CLASSIFICATION_TYPE = U
NORAD_CAT_ID   = 29228
ELEMENT_SET_NO = 999
REV_AT_EPOCH   = 8126
BSTAR          = .26958E-3
MEAN_MOTION_DOT = .4597E-4
MEAN_MOTION_DDOT = 0

CCSDS_OMM_VERS = 2.0
CREATION_DATE  = 
ORIGINATOR     = 

OBJECT_NAME    = CZ-4B R/B
OBJECT_ID      = 2006-046C
CENTER_NAME    = EARTH
REF_FRAME      = TEME
TIME_SYSTEM    = UTC
MEAN_ELEMENT_THEORY = SGP/SGP4

EPOCH          = 2026-01-27T08:59:20.148864
MEAN_MOTION    = 15.16432736
ECCENTRICITY   = .0034893
INCLINATION    = 97.5678
RA_OF_ASC_NODE = 72.3909
ARG_OF_PERICENTER = 52.5794
MEAN_ANOMALY   = 307.8606

EPHEMERIS_TYPE = 0
CLASSIFICATION_TYPE = U
NORAD_CAT_ID   = 29507
ELEMENT_SET_NO = 999
REV_AT_EPOCH   = 5378
BSTAR          = .37961E-3
MEAN_MOTION_DOT = .7428E-4
MEAN_MOTION_DDOT = 0

CCSDS_OMM_VERS = 2.0
CREATION_DATE  = 
ORIGINATOR     = 

OBJECT_NAME    = CZ-2C R/B
OBJECT_ID      = 2007-010B
CENTER_NAME    = EARTH
REF_FRAME      = TEME
TIME_SYSTEM    = UTC
MEAN_ELEMENT_THEORY = SGP/SGP4

EPOCH          = 2026-01-27T07:13:32.376288
MEAN_MOTION    = 14.20231279
ECCENTRICITY   = .0059887
INCLINATION    = 98.3971
RA_OF_ASC_NODE = 142.6595
ARG_OF_PERICENTER = 55.2819
MEAN_ANOMALY   = 305.3980

EPHEMERIS_TYPE = 0
CLASSIFICATION_TYPE = U
NORAD_CAT_ID   = 31114
ELEMENT_SET_NO = 999
REV_AT_EPOCH   = 97384
BSTAR          = .12011E-3
MEAN_MOTION_DOT = .221E-5
MEAN_MOTION_DDOT = 0

CCSDS_OMM_VERS = 2.0
CREATION_DATE  = 
ORIGINATOR     = 

OBJECT_NAME    = COSMO-SKYMED 1
OBJECT_ID      = 2007-023A
CENTER_NAME    = EARTH
REF_FRAME      = TEME
TIME_SYSTEM    = UTC
MEAN_ELEMENT_THEORY = SGP/SGP4

EPOCH          = 2026-01-27T11:20:33.549792
MEAN_MOTION    = 14.96187577
ECCENTRICITY   = .0001492
INCLINATION    = 97.8854
RA_OF_ASC_NODE = 218.1860
ARG_OF_PERICENTER = 88.0955
MEAN_ANOMALY   = 272.0437

EPHEMERIS_TYPE = 0
CLASSIFICATION_TYPE = U
NORAD_CAT_ID   = 31598
ELEMENT_SET_NO = 999
REV_AT_EPOCH   = 874
BSTAR          = .59719E-3
MEAN_MOTION_DOT = .6674E-4
MEAN_MOTION_DDOT = 0

CCSDS_OMM_VERS = 2.0
CREATION_DATE  = 
ORIGINATOR     = 

OBJECT_NAME    = COSMOS 2428
OBJECT_ID      = 2007-029A
CENTER_NAME    = EARTH
REF_FRAME      = TEME
TIME_SYSTEM    = UTC
MEAN_ELEMENT_THEORY = SGP/SGP4

EPOCH          = 2026-01-27T02:51:52.667712
MEAN_MOTION    = 14.12922041
ECCENTRICITY   = .0006445
INCLINATION    = 70.9402
RA_OF_ASC_NODE = 290.6070
ARG_OF_PERICENTER = 323.9826
MEAN_ANOMALY   = 36.0860

EPHEMERIS_TYPE = 0
CLASSIFICATION_TYPE = U
NORAD_CAT_ID   = 31792
ELEMENT_SET_NO = 999
REV_AT_EPOCH   = 95822
BSTAR          = .25808924E-3
MEAN_MOTION_DOT = .433E-5
MEAN_MOTION_DDOT = 0

CCSDS_OMM_VERS = 2.0
CREATION_DATE  = 
ORIGINATOR     = 

OBJECT_NAME    = SL-16 R/B
OBJECT_ID      = 2007-029B
CENTER_NAME    = EARTH
REF_FRAME      = TEME
TIME_SYSTEM    = UTC
MEAN_ELEMENT_THEORY = SGP/SGP4

EPOCH          = 2026-01-27T01:42:53.991072
MEAN_MOTION    = 14.14822426
ECCENTRICITY   = .00018561
INCLINATION    = 70.9733
RA_OF_ASC_NODE = 259.8694
ARG_OF_PERICENTER = 271.5144
MEAN_ANOMALY   = 196.1350

EPHEMERIS_TYPE = 0
CLASSIFICATION_TYPE = U
NORAD_CAT_ID   = 31793
ELEMENT_SET_NO = 999
REV_AT_EPOCH   = 95948
BSTAR          = .55735556E-4
MEAN_MOTION_DOT = .6E-6
MEAN_MOTION_DDOT = 0

CCSDS_OMM_VERS = 2.0
CREATION_DATE  = 
ORIGINATOR     = 

OBJECT_NAME    = KORONAS-FOTON
OBJECT_ID      = 2009-003A
CENTER_NAME    = EARTH
REF_FRAME      = TEME
TIME_SYSTEM    = UTC
MEAN_ELEMENT_THEORY = SGP/SGP4

EPOCH          = 2026-01-26T19:11:11.028480
MEAN_MOTION    = 15.42236154
ECCENTRICITY   = .00095983
INCLINATION    = 82.4325
RA_OF_ASC_NODE = 319.3846
ARG_OF_PERICENTER = 317.8007
MEAN_ANOMALY   = 42.2500

EPHEMERIS_TYPE = 0
CLASSIFICATION_TYPE = U
NORAD_CAT_ID   = 33504
ELEMENT_SET_NO = 999
REV_AT_EPOCH   = 93928
BSTAR          = .34566632E-3
MEAN_MOTION_DOT = .14913E-3
MEAN_MOTION_DDOT = 0

CCSDS_OMM_VERS = 2.0
CREATION_DATE  = 
ORIGINATOR     = 

OBJECT_NAME    = CZ-2C R/B
OBJECT_ID      = 2011-030B
CENTER_NAME    = EARTH
REF_FRAME      = TEME
TIME_SYSTEM    = UTC
MEAN_ELEMENT_THEORY = SGP/SGP4

EPOCH          = 2026-01-27T11:32:43.061280
MEAN_MOTION    = 14.81062199
ECCENTRICITY   = .005395
INCLINATION    = 97.8473
RA_OF_ASC_NODE = 345.5957
ARG_OF_PERICENTER = 123.5282
MEAN_ANOMALY   = 357.5893

EPHEMERIS_TYPE = 0
CLASSIFICATION_TYPE = U
NORAD_CAT_ID   = 37731
ELEMENT_SET_NO = 999
REV_AT_EPOCH   = 78399
BSTAR          = .28634E-3
MEAN_MOTION_DOT = .2224E-4
MEAN_MOTION_DDOT = 0

CCSDS_OMM_VERS = 2.0
CREATION_DATE  = 
ORIGINATOR     = 

OBJECT_NAME    = H-2A R/B
OBJECT_ID      = 2012-025E
CENTER_NAME    = EARTH
REF_FRAME      = TEME
TIME_SYSTEM    = UTC
MEAN_ELEMENT_THEORY = SGP/SGP4

EPOCH          = 2026-01-27T11:58:44.755104
MEAN_MOTION    = 14.94794552
ECCENTRICITY   = .0046321
INCLINATION    = 98.4652
RA_OF_ASC_NODE = 351.2842
ARG_OF_PERICENTER = 87.6199
MEAN_ANOMALY   = 273.0321

EPHEMERIS_TYPE = 0
CLASSIFICATION_TYPE = U
NORAD_CAT_ID   = 38341
ELEMENT_SET_NO = 999
REV_AT_EPOCH   = 74206
BSTAR          = .52583E-3
MEAN_MOTION_DOT = .5776E-4
MEAN_MOTION_DDOT = 0

CCSDS_OMM_VERS = 2.0
CREATION_DATE  = 
ORIGINATOR     = 

OBJECT_NAME    = SHIJIAN-16 (SJ-16)
OBJECT_ID      = 2013-057A
CENTER_NAME    = EARTH
REF_FRAME      = TEME
TIME_SYSTEM    = UTC
MEAN_ELEMENT_THEORY = SGP/SGP4

EPOCH          = 2026-01-27T12:45:56.327616
MEAN_MOTION    = 14.92206652
ECCENTRICITY   = .0017408
INCLINATION    = 74.9716
RA_OF_ASC_NODE = 262.9989
ARG_OF_PERICENTER = 213.8947
MEAN_ANOMALY   = 146.1130

EPHEMERIS_TYPE = 0
CLASSIFICATION_TYPE = U
NORAD_CAT_ID   = 39358
ELEMENT_SET_NO = 999
REV_AT_EPOCH   = 66536
BSTAR          = .18564E-3
MEAN_MOTION_DOT = .1868E-4
MEAN_MOTION_DDOT = 0

