ALOS (DAICHI)           
1 28931U 06002A   26027.45059139  .00002652  00000+0  45393-3 0  9995
2 28931  98.1150 343.6363 0002169  78.5104 281.6345 14.69662963 67420
H-2A R/B                
1 28932U 06002B   26027.35623331  .00012390  00000+0  63294-3 0  9996
2 28932  98.2336 170.8740 0053702  22.9958 337.3659 15.15578538 88174
RESURS-DK 1             
1 29228U 06021A   26027.27057820  .00004597  00000+0  26958-3 0  9997
2 29228  69.9346 344.1416 0005136 214.8921 145.1909 15.12475292 81261
CZ-4B R/B               
1 29507U 06046C   26027.37453876  .00007428  00000+0  37961-3 0  9998
2 29507  97.5678  72.3909 0034893  52.5794 307.8606 15.16432736 53787
CZ-2C R/B               
1 31114U 07010B   26027.30106917  .00000221  00000+0  12011-3 0  9994
2 31114  98.3971 142.6595 0059887  55.2819 305.3980 14.20231279973848
COSMO-SKYMED 1          
1 31598U 07023A   26027.47261053  .00006674  00000+0  59719-3 0  9999
2 31598  97.8854 218.1860 0001492  88.0955 272.0437 14.96187577  8745
COSMOS 2428             
1 31792U 07029A   26027.11935958  .00000433  00000+0  25809-3 0  9994
2 31792  70.9402 290.6070 0006445 323.9826  36.0860 14.12922041958227
SL-16 R/B               
1 31793U 07029B   26027.07145823  .00000060  00000+0  55736-4 0  9993
2 31793  70.9733 259.8694 0001856 271.5144 196.1350 14.14822426959485
KORONAS-FOTON           
1 33504U 09003A   26026.79943320  .00014913  00000+0  34567-3 0  9995
2 33504  82.4325 319.3846 0009598 317.8007  42.2500 15.42236154939289
CZ-2C R/B               
1 37731U 11030B   26027.48105395  .00002224  00000+0  28634-3 0  9993
2 37731  97.8473 345.5957 0053950 123.5282 357.5893 14.81062199783991
H-2A R/B                
1 38341U 12025E   26027.49912911  .00005776  00000+0  52583-3 0  9992
2 38341  98.4652 351.2842 0046321  87.6199 273.0321 14.94794552742063
SHIJIAN-16 (SJ-16)      
1 39358U 13057A   26027.53190194  .00001868  00000+0  18564-3 0  9992
2 39358  74.9716 262.9989 0017408 213.8947 146.1130 14.92206652665362
